[{"OBJECT_NAME":"ONEWEB-0520","OBJECT_ID":"2022-138AB","EPOCH":"2026-06-17T03:06:58.929408","MEAN_MOTION":13.19724947,"ECCENTRICITY":0.0001604,"INCLINATION":87.9179,"RA_OF_ASC_NODE":304.9773,"ARG_OF_PERICENTER":102.2947,"MEAN_ANOMALY":257.8365,"EPHEMERIS_TYPE":0,"CLASSIFICATION_TYPE":"U","NORAD_CAT_ID":54138,"ELEMENT_SET_NO":999,"REV_AT_EPOCH":17681,"BSTAR":0.00010073,"MEAN_MOTION_DOT":5.3e-07,"MEAN_MOTION_DDOT":0.0},{"OBJECT_NAME":"ONEWEB-0521","OBJECT_ID":"2022-138AC","EPOCH":"2026-06-16T22:27:12.620736","MEAN_MOTION":13.19725468,"ECCENTRICITY":0.0001973,"INCLINATION":87.9176,"RA_OF_ASC_NODE":305.004,"ARG_OF_PERICENTER":92.0766,"MEAN_ANOMALY":268.0593,"EPHEMERIS_TYPE":0,"CLASSIFICATION_TYPE":"U","NORAD_CAT_ID":54139,"ELEMENT_SET_NO":999,"REV_AT_EPOCH":17673,"BSTAR":7.2063e-05,"MEAN_MOTION_DOT":4.2e-07,"MEAN_MOTION_DDOT":0.0},{"OBJECT_NAME":"ONEWEB-0522","OBJECT_ID":"2022-138AD","EPOCH":"2026-06-17T03:25:10.520832","MEAN_MOTION":13.19724746,"ECCENTRICITY":0.0001703,"INCLINATION":87.9181,"RA_OF_ASC_NODE":304.9658,"ARG_OF_PERICENTER":98.7365,"MEAN_ANOMALY":261.3961,"EPHEMERIS_TYPE":0,"CLASSIFICATION_TYPE":"U","NORAD_CAT_ID":54140,"ELEMENT_SET_NO":999,"REV_AT_EPOCH":17680,"BSTAR":7.5735e-05,"MEAN_MOTION_DOT":4.3e-07,"MEAN_MOTION_DDOT":0.0},{"OBJECT_NAME":"ONEWEB-0523","OBJECT_ID":"2022-138AE","EPOCH":"2026-06-16T17:25:51.892320","MEAN_MOTION":13.20770993,"ECCENTRICITY":0.0002772,"INCLINATION":87.9197,"RA_OF_ASC_NODE":274.5322,"ARG_OF_PERICENTER":98.3452,"MEAN_ANOMALY":261.7996,"EPHEMERIS_TYPE":0,"CLASSIFICATION_TYPE":"U","NORAD_CAT_ID":54141,"ELEMENT_SET_NO":999,"REV_AT_EPOCH":17924,"BSTAR":3.1034e-05,"MEAN_MOTION_DOT":2.6e-07,"MEAN_MOTION_DDOT":0.0},{"OBJECT_NAME":"ONEWEB-0524","OBJECT_ID":"2022-138AF","EPOCH":"2026-06-17T00:27:41.084064","MEAN_MOTION":13.20770833,"ECCENTRICITY":0.0002617,"INCLINATION":87.9195,"RA_OF_ASC_NODE":274.4708,"ARG_OF_PERICENTER":115.9493,"MEAN_ANOMALY":244.1911,"EPHEMERIS_TYPE":0,"CLASSIFICATION_TYPE":"U","NORAD_CAT_ID":54142,"ELEMENT_SET_NO":999,"REV_AT_EPOCH":17928,"BSTAR":2.7942e-05,"MEAN_MOTION_DOT":2.4e-07,"MEAN_MOTION_DDOT":0.0},{"OBJECT_NAME":"ONEWEB-0525","OBJECT_ID":"2022-138AG","EPOCH":"2026-06-16T22:24:55.818432","MEAN_MOTION":13.19725359,"ECCENTRICITY":0.0001565,"INCLINATION":87.9175,"RA_OF_ASC_NODE":305.0148,"ARG_OF_PERICENTER":107.2774,"MEAN_ANOMALY":252.853,"EPHEMERIS_TYPE":0,"CLASSIFICATION_TYPE":"U","NORAD_CAT_ID":54143,"ELEMENT_SET_NO":999,"REV_AT_EPOCH":17679,"BSTAR":-0.00010944,"MEAN_MOTION_DOT":-3.1e-07,"MEAN_MOTION_DDOT":0.0},{"OBJECT_NAME":"ONEWEB-0526","OBJECT_ID":"2022-138AH","EPOCH":"2026-06-17T02:51:02.958336","MEAN_MOTION":13.19725396,"ECCENTRICITY":0.0001815,"INCLINATION":87.9178,"RA_OF_ASC_NODE":304.9786,"ARG_OF_PERICENTER":103.0775,"MEAN_ANOMALY":257.0561,"EPHEMERIS_TYPE":0,"CLASSIFICATION_TYPE":"U","NORAD_CAT_ID":54144,"ELEMENT_SET_NO":999,"REV_AT_EPOCH":17679,"BSTAR":-0.00014391000000000002,"MEAN_MOTION_DOT":-4.5e-07,"MEAN_MOTION_DDOT":0.0},{"OBJECT_NAME":"ONEWEB-0529","OBJECT_ID":"2022-138AJ","EPOCH":"2026-06-17T02:55:35.990112","MEAN_MOTION":13.19724475,"ECCENTRICITY":0.0001645,"INCLINATION":87.917,"RA_OF_ASC_NODE":304.9871,"ARG_OF_PERICENTER":103.1334,"MEAN_ANOMALY":256.9982,"EPHEMERIS_TYPE":0,"CLASSIFICATION_TYPE":"U","NORAD_CAT_ID":54145,"ELEMENT_SET_NO":999,"REV_AT_EPOCH":17681,"BSTAR":0.00016761,"MEAN_MOTION_DOT":8e-07,"MEAN_MOTION_DDOT":0.0},{"OBJECT_NAME":"ONEWEB-0531","OBJECT_ID":"2022-138AK","EPOCH":"2026-06-16T20:30:07.282080","MEAN_MOTION":13.20771586,"ECCENTRICITY":0.0002826,"INCLINATION":87.9192,"RA_OF_ASC_NODE":274.5015,"ARG_OF_PERICENTER":103.8403,"MEAN_ANOMALY":256.3045,"EPHEMERIS_TYPE":0,"CLASSIFICATION_TYPE":"U","NORAD_CAT_ID":54146,"ELEMENT_SET_NO":999,"REV_AT_EPOCH":17926,"BSTAR":0.00019435,"MEAN_MOTION_DOT":9.2e-07,"MEAN_MOTION_DDOT":0.0},{"OBJECT_NAME":"ONEWEB-0535","OBJECT_ID":"2022-138AL","EPOCH":"2026-06-17T01:54:10.993824","MEAN_MOTION":13.19725609,"ECCENTRICITY":0.0002179,"INCLINATION":87.9177,"RA_OF_ASC_NODE":304.9795,"ARG_OF_PERICENTER":94.718,"MEAN_ANOMALY":265.4201,"EPHEMERIS_TYPE":0,"CLASSIFICATION_TYPE":"U","NORAD_CAT_ID":54147,"ELEMENT_SET_NO":999,"REV_AT_EPOCH":17682,"BSTAR":0.00014828,"MEAN_MOTION_DOT":7.2e-07,"MEAN_MOTION_DDOT":0.0},{"OBJECT_NAME":"ONEWEB-0536","OBJECT_ID":"2022-138AM","EPOCH":"2026-06-16T20:10:42.864096","MEAN_MOTION":13.2077091,"ECCENTRICITY":0.0002963,"INCLINATION":87.9182,"RA_OF_ASC_NODE":274.5265,"ARG_OF_PERICENTER":107.3705,"MEAN_ANOMALY":252.7753,"EPHEMERIS_TYPE":0,"CLASSIFICATION_TYPE":"U","NORAD_CAT_ID":54148,"ELEMENT_SET_NO":999,"REV_AT_EPOCH":17925,"BSTAR":-6.0336000000000006e-05,"MEAN_MOTION_DOT":-1.2e-07,"MEAN_MOTION_DDOT":0.0},{"OBJECT_NAME":"ONEWEB-0527","OBJECT_ID":"2022-166A","EPOCH":"2026-06-16T22:47:19.904352","MEAN_MOTION":13.21823017,"ECCENTRICITY":0.0001993,"INCLINATION":87.9253,"RA_OF_ASC_NODE":244.0447,"ARG_OF_PERICENTER":100.3862,"MEAN_ANOMALY":259.7497,"EPHEMERIS_TYPE":0,"CLASSIFICATION_TYPE":"U","NORAD_CAT_ID":54642,"ELEMENT_SET_NO":999,"REV_AT_EPOCH":17150,"BSTAR":-4.107100000000001e-05,"MEAN_MOTION_DOT":-4e-08,"MEAN_MOTION_DDOT":0.0},{"OBJECT_NAME":"ONEWEB-0528","OBJECT_ID":"2022-166B","EPOCH":"2026-06-16T22:48:32.608224","MEAN_MOTION":13.21824112,"ECCENTRICITY":0.0001865,"INCLINATION":87.9255,"RA_OF_ASC_NODE":244.0468,"ARG_OF_PERICENTER":103.901,"MEAN_ANOMALY":256.2331,"EPHEMERIS_TYPE":0,"CLASSIFICATION_TYPE":"U","NORAD_CAT_ID":54643,"ELEMENT_SET_NO":999,"REV_AT_EPOCH":17151,"BSTAR":0.00021663,"MEAN_MOTION_DOT":1.02e-06,"MEAN_MOTION_DDOT":0.0},{"OBJECT_NAME":"ONEWEB-0539","OBJECT_ID":"2022-166C","EPOCH":"2026-06-16T21:54:03.879360","MEAN_MOTION":13.21827412,"ECCENTRICITY":0.0001956,"INCLINATION":87.9259,"RA_OF_ASC_NODE":244.0258,"ARG_OF_PERICENTER":92.7751,"MEAN_ANOMALY":267.3607,"EPHEMERIS_TYPE":0,"CLASSIFICATION_TYPE":"U","NORAD_CAT_ID":54644,"ELEMENT_SET_NO":999,"REV_AT_EPOCH":17150,"BSTAR":0.00017009,"MEAN_MOTION_DOT":8.3e-07,"MEAN_MOTION_DDOT":0.0},{"OBJECT_NAME":"ONEWEB-0540","OBJECT_ID":"2022-166D","EPOCH":"2026-06-16T22:03:56.871072","MEAN_MOTION":13.21826526,"ECCENTRICITY":0.0002041,"INCLINATION":87.9254,"RA_OF_ASC_NODE":244.0549,"ARG_OF_PERICENTER":95.3667,"MEAN_ANOMALY":264.77,"EPHEMERIS_TYPE":0,"CLASSIFICATION_TYPE":"U","NORAD_CAT_ID":54645,"ELEMENT_SET_NO":999,"REV_AT_EPOCH":17149,"BSTAR":5.8592000000000004e-05,"MEAN_MOTION_DOT":3.7e-07,"MEAN_MOTION_DDOT":0.0},{"OBJECT_NAME":"ONEWEB-0542","OBJECT_ID":"2022-166E","EPOCH":"2026-06-16T22:08:35.059200","MEAN_MOTION":13.21827664,"ECCENTRICITY":0.0002003,"INCLINATION":87.9262,"RA_OF_ASC_NODE":244.0225,"ARG_OF_PERICENTER":90.3256,"MEAN_ANOMALY":269.8107,"EPHEMERIS_TYPE":0,"CLASSIFICATION_TYPE":"U","NORAD_CAT_ID":54646,"ELEMENT_SET_NO":999,"REV_AT_EPOCH":17150,"BSTAR":0.00021265000000000002,"MEAN_MOTION_DOT":1.01e-06,"MEAN_MOTION_DDOT":0.0}]