ONEWEB-0520             
1 54138U 22138AB  26168.12984872  .00000053  00000+0  10073-3 0  9992
2 54138  87.9179 304.9773 0001604 102.2947 257.8365 13.19724947176819
ONEWEB-0521             
1 54139U 22138AC  26167.93556274  .00000042  00000+0  72063-4 0  9998
2 54139  87.9176 305.0040 0001973  92.0766 268.0593 13.19725468176737
ONEWEB-0522             
1 54140U 22138AD  26168.14248288  .00000043  00000+0  75735-4 0  9997
2 54140  87.9181 304.9658 0001703  98.7365 261.3961 13.19724746176808
ONEWEB-0523             
1 54141U 22138AE  26167.72629505  .00000026  00000+0  31034-4 0  9991
2 54141  87.9197 274.5322 0002772  98.3452 261.7996 13.20770993179246
ONEWEB-0524             
1 54142U 22138AF  26168.01922551  .00000024  00000+0  27942-4 0  9993
2 54142  87.9195 274.4708 0002617 115.9493 244.1911 13.20770833179280
ONEWEB-0525             
1 54143U 22138AG  26167.93397938 -.00000031  00000+0 -10944-3 0  9992
2 54143  87.9175 305.0148 0001565 107.2774 252.8530 13.19725359176792
ONEWEB-0526             
1 54144U 22138AH  26168.11878424 -.00000045  00000+0 -14391-3 0  9993
2 54144  87.9178 304.9786 0001815 103.0775 257.0561 13.19725396176797
ONEWEB-0529             
1 54145U 22138AJ  26168.12194433  .00000080  00000+0  16761-3 0  9996
2 54145  87.9170 304.9871 0001645 103.1334 256.9982 13.19724475176813
ONEWEB-0531             
1 54146U 22138AK  26167.85425095  .00000092  00000+0  19435-3 0  9991
2 54146  87.9192 274.5015 0002826 103.8403 256.3045 13.20771586179269
ONEWEB-0535             
1 54147U 22138AL  26168.07929391  .00000072  00000+0  14828-3 0  9994
2 54147  87.9177 304.9795 0002179  94.7180 265.4201 13.19725609176824
ONEWEB-0536             
1 54148U 22138AM  26167.84077389 -.00000012  00000+0 -60336-4 0  9992
2 54148  87.9182 274.5265 0002963 107.3705 252.7753 13.20770910179258
ONEWEB-0527             
1 54642U 22166A   26167.94953593 -.00000004  00000+0 -41071-4 0  9999
2 54642  87.9253 244.0447 0001993 100.3862 259.7497 13.21823017171509
ONEWEB-0528             
1 54643U 22166B   26167.95037741  .00000102  00000+0  21663-3 0  9990
2 54643  87.9255 244.0468 0001865 103.9010 256.2331 13.21824112171514
ONEWEB-0539             
1 54644U 22166C   26167.91254490  .00000083  00000+0  17009-3 0  9996
2 54644  87.9259 244.0258 0001956  92.7751 267.3607 13.21827412171508
ONEWEB-0540             
1 54645U 22166D   26167.91940823  .00000037  00000+0  58592-4 0  9991
2 54645  87.9254 244.0549 0002041  95.3667 264.7700 13.21826526171496
ONEWEB-0542             
1 54646U 22166E   26167.92262800  .00000101  00000+0  21265-3 0  9993
2 54646  87.9262 244.0225 0002003  90.3256 269.8107 13.21827664171507
